KUIPER-00016            
1 63732U 25088J   25248.20565312  .00014368  00000+0  19033-2 0  9998
2 63732  51.8985 211.8031 0010581 171.9891 188.1242 14.80043434 19867
KUIPER-00018            
1 63733U 25088K   25248.58336806 -.01399001  00000+0 -13562+0 0  9995
2 63733  51.8896 199.1163 0011258 192.3531 262.6560 14.95671718  4169
KUIPER-00019            
1 63734U 25088L   25248.58336806 -.00048760  00000+0 -46775-2 0  9993
2 63734  51.8899 198.0815 0008541 206.4934  39.9564 14.92748947  5852
KUIPER-00020            
1 63735U 25088M   25248.58336806 -.00084994  00000+0 -10907-1 0  9990
2 63735  51.8985 201.5625 0008880 190.1299 357.5337 14.81233941  4810
KUIPER-00021            
1 63736U 25088N   25248.58336806 -.00082243  00000+0 -10456-1 0  9995
2 63736  51.8976 202.6165 0007529 189.8005 332.8909 14.81612541  5124
KUIPER-00023            
1 63737U 25088P   25248.58336806 -.00027036  00000+0 -35074-2 0  9999
2 63737  51.9001 204.0725 0009979 201.1756 334.2619 14.80180253  5308
KUIPER-00024            
1 63738U 25088Q   25248.58336806 -.01930212  00000+0 -13503+0 0  9990
2 63738  51.8860 193.7228 0002582 160.8082 334.5078 15.08584030  5279
KUIPER-00025            
1 63739U 25088R   25248.58336806 -.00025562  00000+0 -31634-2 0  9991
2 63739  51.8975 200.1637 0008985 180.9147 326.2663 14.82120706  5435
